NORAD_CAT_ID,OBJECT_NAME,OBJECT_TYPE,EPOCH,MEAN_MOTION,ECCENTRICITY,INCLINATION,RA_OF_ASC_NODE,ARG_OF_PERICENTER,MEAN_ANOMALY,BSTAR,MEAN_MOTION_DOT,MEAN_MOTION_DDOT,TLE_LINE0,TLE_LINE1,TLE_LINE2,SEMIMAJOR_AXIS,PERIOD,APOGEE,PERIGEE,DECAYED
49769.0,STARLINK-3208,PAYLOAD,2023-09-17 08:28:04,15.08846053,0.0001492,53.217,238.8931,97.9072,262.2089,3.7097e-05,3.03e-06,0.0,0 STARLINK-3208,1 49769U 21115AX  23260.35283129  .00000303  00000-0  37097-4 0  9997,2 49769  53.2170 238.8931 0001492  97.9072 262.2089 15.08846053 99152,6917.862,95.437,540.759,538.695,0.0
49769.0,STARLINK-3208,PAYLOAD,2023-09-18 08:18:50,15.08854978,0.0001517,53.2169,234.4334,93.8121,266.3045,6.554e-05,7.56e-06,0.0,0 STARLINK-3208,1 49769U 21115AX  23261.34642266  .00000756  00000-0  65540-4 0  9994,2 49769  53.2169 234.4334 0001517  93.8121 266.3045 15.08854978100411,6917.835,95.437,540.749,538.65,0.0
49769.0,STARLINK-3208,PAYLOAD,2023-09-19 01:48:06,15.08841806,0.0001546,53.2162,231.1613,91.3905,268.7264,0.00011559,1.552e-05,0.0,0 STARLINK-3208,1 49769U 21115AX  23262.07506956  .00001552  00000-0  11559-3 0  9995,2 49769  53.2162 231.1613 0001546  91.3905 268.7264 15.08841806100520,6917.875,95.437,540.809,538.67,0.0
49769.0,STARLINK-3208,PAYLOAD,2023-09-19 06:34:14,15.08854691,0.0001456,53.2157,230.2703,93.1765,266.9394,0.0002647,3.929e-05,0.0,0 STARLINK-3208,1 49769U 21115AX  23262.27378264  .00003929  00000-0  26470-3 0  9994,2 49769  53.2157 230.2703 0001456  93.1765 266.9394 15.08854691100551,6917.835,95.437,540.708,538.693,0.0
49769.0,STARLINK-3208,PAYLOAD,2023-09-20 03:14:16,15.08833076,0.0001567,53.2166,226.4033,97.7353,262.3817,-0.00012854,-2.333e-05,0.0,0 STARLINK-3208,1 49769U 21115AX  23263.13491331 -.00002333  00000-0 -12854-3 0  9992,2 49769  53.2166 226.4033 0001567  97.7353 262.3817 15.08833076100688,6917.902,95.438,540.851,538.683,0.0
49769.0,STARLINK-3208,PAYLOAD,2023-09-20 08:00:26,15.08836422,0.0001424,53.2171,225.5128,91.0821,269.0334,-5.4591e-05,-1.157e-05,0.0,0 STARLINK-3208,1 49769U 21115AX  23263.33363744 -.00001157  00000-0 -54591-4 0  9998,2 49769  53.2171 225.5128 0001424  91.0821 269.0334 15.08836422 99603,6917.891,95.438,540.741,538.771,0.0
49769.0,STARLINK-3208,PAYLOAD,2023-09-20 14:21:59,15.08833736,0.0001394,53.2169,224.3233,88.7272,271.388,-5.7833e-05,-1.208e-05,0.0,0 STARLINK-3208,1 49769U 21115AX  23263.59860022 -.00001208  00000-0 -57833-4 0  9996,2 49769  53.2169 224.3233 0001394  88.7272 271.3880 15.08833736 99644,6917.9,95.438,540.729,538.8,0.0
49769.0,STARLINK-3208,PAYLOAD,2023-09-21 06:15:50,15.08838756,0.0001363,53.2169,221.3505,89.8773,270.2375,-4.8174e-05,-1.054e-05,0.0,0 STARLINK-3208,1 49769U 21115AX  23264.26100224 -.00001054  00000-0 -48174-4 0  9999,2 49769  53.2169 221.3505 0001363  89.8773 270.2375 15.08838756100857,6917.884,95.438,540.692,538.806,0.0
49769.0,STARLINK-3208,PAYLOAD,2023-09-22 04:31:13,15.08847125,0.0001454,53.2171,217.1875,82.9111,277.2047,0.00026748,3.972e-05,0.0,0 STARLINK-3208,1 49769U 21115AX  23265.18835289  .00003972  00000-0  26748-3 0  9998,2 49769  53.2171 217.1875 0001454  82.9111 277.2047 15.08847125100992,6917.859,95.437,540.729,538.718,0.0
49769.0,STARLINK-3208,PAYLOAD,2023-09-22 06:06:36,15.08848872,0.0001458,53.2171,216.89,83.1639,276.9519,0.00028885,4.313e-05,0.0,0 STARLINK-3208,1 49769U 21115AX  23265.25459222  .00004313  00000-0  28885-3 0  9999,2 49769  53.2171 216.8900 0001458  83.1639 276.9519 15.08848872 99895,6917.853,95.437,540.727,538.71,0.0
49769.0,STARLINK-3208,PAYLOAD,2023-09-23 02:46:38,15.08846341,0.0001375,53.2153,213.0226,93.291,266.824,0.00016146,2.283e-05,0.0,0 STARLINK-3208,1 49769U 21115AX  23266.11571777  .00002283  00000-0  16146-3 0  9996,2 49769  53.2153 213.0226 0001375  93.2910 266.8240 15.08846341101136,6917.861,95.437,540.677,538.775,0.0
49769.0,STARLINK-3208,PAYLOAD,2023-09-24 05:48:10,15.0885099,0.0001402,53.2155,207.9686,92.1639,267.9514,6.7118e-05,7.81e-06,0.0,0 STARLINK-3208,1 49769U 21115AX  23267.24179338  .00000781  00000-0  67118-4 0  9995,2 49769  53.2155 207.9686 0001402  92.1639 267.9514 15.08850990101307,6917.847,95.437,540.682,538.742,0.0
49769.0,STARLINK-3208,PAYLOAD,2023-09-25 02:28:12,15.0884451,0.0001234,53.2162,204.1008,100.4488,259.6644,6.1086e-05,6.85e-06,0.0,0 STARLINK-3208,1 49769U 21115AX  23268.10291749  .00000685  00000-0  61086-4 0  9993,2 49769  53.2162 204.1008 0001234 100.4488 259.6644 15.08844510101437,6917.867,95.437,540.585,538.878,0.0
49769.0,STARLINK-3208,PAYLOAD,2023-09-25 05:38:58,15.08847979,0.0001333,53.2162,203.5058,106.6993,253.4145,0.00014533,2.026e-05,0.0,0 STARLINK-3208,1 49769U 21115AX  23268.23539596  .00002026  00000-0  14533-3 0  9997,2 49769  53.2162 203.5058 0001333 106.6993 253.4145 15.08847979100343,6917.856,95.437,540.643,538.799,0.0
49769.0,STARLINK-3208,PAYLOAD,2023-09-26 00:43:35,15.0885907,0.000145,53.2157,199.9387,108.0935,252.0215,0.00038576,5.86e-05,0.0,0 STARLINK-3208,1 49769U 21115AX  23269.03026950  .00005860  00000-0  38576-3 0  9993,2 49769  53.2157 199.9387 0001450 108.0935 252.0215 15.08859070101576,6917.822,95.436,540.69,538.684,0.0
49769.0,STARLINK-3208,PAYLOAD,2023-09-26 05:29:44,15.08861329,0.0001475,53.2161,199.045,110.2054,249.9097,0.00039745,6.047e-05,0.0,0 STARLINK-3208,1 49769U 21115AX  23269.22898685  .00006047  00000-0  39745-3 0  9993,2 49769  53.2161 199.0450 0001475 110.2054 249.9097 15.08861329100490,6917.815,95.436,540.701,538.66,0.0
49769.0,STARLINK-3208,PAYLOAD,2023-09-26 19:48:13,15.0883589,0.0001916,53.2159,196.3686,81.2148,278.9061,-9.4493e-05,-1.792e-05,0.0,0 STARLINK-3208,1 49769U 21115AX  23269.82516010 -.00001792  00000-0 -94493-4 0  9994,2 49769  53.2159 196.3686 0001916  81.2148 278.9061 15.08835890101699,6917.893,95.438,541.083,538.432,0.0
49769.0,STARLINK-3208,PAYLOAD,2023-09-27 11:42:05,15.08826883,0.0001512,53.217,193.3969,84.6794,275.4371,-0.00016472,-2.908e-05,0.0,0 STARLINK-3208,1 49769U 21115AX  23270.48756694 -.00002908  00000-0 -16472-3 0  9992,2 49769  53.2170 193.3969 0001512  84.6794 275.4371 15.08826883100685,6917.92,95.438,540.831,538.739,0.0
49769.0,STARLINK-3208,PAYLOAD,2023-09-28 00:25:11,15.088253,0.0001401,53.2162,191.018,96.0382,264.077,-0.00015298,-2.721e-05,0.0,0 STARLINK-3208,1 49769U 21115AX  23271.01749216 -.00002721  00000-0 -15298-3 0  9992,2 49769  53.2162 191.0180 0001401  96.0382 264.0770 15.08825300100762,6917.925,95.438,540.76,538.821,0.0
49769.0,STARLINK-3208,PAYLOAD,2023-09-28 17:54:25,15.08837809,0.0001511,53.2174,187.7479,98.3403,261.776,0.00035656,5.391e-05,0.0,0 STARLINK-3208,1 49769U 21115AX  23271.74613401  .00005391  00000-0  35656-3 0  9992,2 49769  53.2174 187.7479 0001511  98.3403 261.7760 15.08837809101984,6917.887,95.438,540.797,538.707,0.0
49769.0,STARLINK-3208,PAYLOAD,2023-09-29 05:02:07,15.08853541,0.000142,53.2163,185.6673,93.1701,266.9453,0.00052071,8.012e-05,0.0,0 STARLINK-3208,1 49769U 21115AX  23272.20980769  .00008012  00000-0  52071-3 0  9991,2 49769  53.2163 185.6673 0001420  93.1701 266.9453 15.08853541102054,6917.839,95.437,540.686,538.722,0.0
49769.0,STARLINK-3208,PAYLOAD,2023-09-30 01:42:07,15.08862827,0.000145,53.2156,181.8012,104.8104,255.3049,0.00042166,6.433e-05,0.0,0 STARLINK-3208,1 49769U 21115AX  23273.07092004  .00006433  00000-0  42166-3 0  9992,2 49769  53.2156 181.8012 0001450 104.8104 255.3049 15.08862827101072,6917.811,95.436,540.679,538.673,0.0
49769.0,STARLINK-3208,PAYLOAD,2023-09-30 11:14:26,15.08842108,0.0001689,53.2157,180.0175,75.511,284.607,-4.5861e-05,-1.018e-05,0.0,0 STARLINK-3208,1 49769U 21115AX  23273.46836595 -.00001018  00000-0 -45861-4 0  9998,2 49769  53.2157 180.0175 0001689  75.5110 284.6070 15.08842108102248,6917.874,95.437,540.907,538.571,0.0
49769.0,STARLINK-3208,PAYLOAD,2023-09-30 17:35:59,15.08830315,0.0001702,53.2152,178.8276,79.4166,280.7018,-0.00030636,-5.159e-05,0.0,0 STARLINK-3208,1 49769U 21115AX  23273.73333053 -.00005159  00000-0 -30636-3 0  9992,2 49769  53.2152 178.8276 0001702  79.4166 280.7018 15.08830315102280,6917.91,95.438,540.952,538.598,0.0
49769.0,STARLINK-3208,PAYLOAD,2023-10-01 03:08:18,15.08843938,0.0001592,53.216,177.042,85.9967,274.1208,5.5066e-05,5.89e-06,0.0,0 STARLINK-3208,1 49769U 21115AX  23274.13076660  .00000589  00000-0  55066-4 0  9990,2 49769  53.2160 177.0420 0001592  85.9967 274.1208 15.08843938102349,6917.868,95.437,540.835,538.632,0.0
49769.0,STARLINK-3208,PAYLOAD,2023-10-01 11:05:14,15.08843233,0.0001518,53.2161,175.5545,89.6914,270.4252,0.00016245,2.299e-05,0.0,0 STARLINK-3208,1 49769U 21115AX  23274.46196811  .00002299  00000-0  16245-3 0  9992,2 49769  53.2161 175.5545 0001518  89.6914 270.4252 15.08843233101280,6917.871,95.437,540.786,538.685,0.0
49769.0,STARLINK-3208,PAYLOAD,2023-10-02 10:56:01,15.08841145,0.0001598,53.215,171.0962,91.5705,268.547,3.2825e-05,2.34e-06,0.0,0 STARLINK-3208,1 49769U 21115AX  23275.45556825  .00000234  00000-0  32825-4 0  9997,2 49769  53.2150 171.0962 0001598  91.5705 268.5470 15.08841145102540,6917.877,95.437,540.847,538.636,0.0
49769.0,STARLINK-3208,PAYLOAD,2023-10-02 20:28:19,15.08841813,0.0001638,53.2148,169.3121,93.1702,266.9478,-2.535e-05,-6.92e-06,0.0,0 STARLINK-3208,1 49769U 21115AX  23275.85300653 -.00000692  00000-0 -25350-4 0  9992,2 49769  53.2148 169.3121 0001638  93.1702 266.9478 15.08841813101499,6917.875,95.437,540.873,538.607,0.0
49769.0,STARLINK-3208,PAYLOAD,2023-10-03 02:49:52,15.08846034,0.0001571,53.2151,168.1204,101.5491,258.5678,0.00036983,5.604e-05,0.0,0 STARLINK-3208,1 49769U 21115AX  23276.11796578  .00005604  00000-0  36983-3 0  9996,2 49769  53.2151 168.1204 0001571 101.5491 258.5678 15.08846034101531,6917.862,95.437,540.814,538.64,0.0
49769.0,STARLINK-3208,PAYLOAD,2023-10-03 20:19:07,15.08833516,0.0001475,53.2158,164.8492,102.8877,257.228,0.00035452,5.358e-05,0.0,0 STARLINK-3208,1 49769U 21115AX  23276.84661355  .00005358  00000-0  35452-3 0  9996,2 49769  53.2158 164.8492 0001475 102.8877 257.2280 15.08833516102756,6917.9,95.438,540.786,538.745,0.0
